APSTAR 6C               
1 43450U 18041A   21045.87372534 -.00000327  00000-0  00000-0 0  9994
2 43450   0.0471 270.9929 0001701  17.4827 305.1359  1.00270008 10304
BANGABANDHUSAT-1        
1 43463U 18044A   21046.48814399 -.00000369  00000-0  00000+0 0  9994
2 43463   0.0102 137.7015 0002125 207.9574  94.8460  1.00271922 10201
SES-12                  
1 43488U 18049A   21046.48334601 -.00000276  00000-0  00000+0 0  9996
2 43488   0.0205  73.9755 0002042 209.7198 130.9816  1.00271119  9892
FENGYUN 2H              
1 43491U 18050A   21045.90257612 -.00000136  00000-0  00000-0 0  9990
2 43491   0.1100 231.9573 0002765 253.3814  63.9050  1.00268206  9974
BEIDOU IGSO-7           
1 43539U 18057A   21045.80883527 -.00000134  00000-0  00000-0 0  9997
2 43539  55.0556 180.0563 0031993 212.6544 155.5841  1.00250565  9624
TELSTAR 19V             
1 43562U 18059A   21046.14215848 -.00000288  00000-0  00000+0 0  9997
2 43562   0.0104 138.8835 0000672  27.0563 327.5461  1.00272128  9630
TELKOM 4 (MERAH PUTIH)  
1 43587U 18064A   21045.86969123 -.00000353  00000-0  00000-0 0  9994
2 43587   0.0169 100.4672 0001222 263.6944 201.9868  1.00271762  9331
TELSTAR 18V (APSTAR 5C) 
1 43611U 18069A   21046.49189512 -.00000301  00000-0  00000+0 0  9995
2 43611   0.0176 107.7723 0001893 220.8337 132.1531  1.00271925  9084
AZERSPACE 2 (IS-38)     
1 43632U 18074A   21046.09007590  .00000128  00000-0  00000+0 0  9991
2 43632   0.0124 102.3143 0001289 225.4478 255.0489  1.00271691  8944
HORIZONS 3E             
1 43633U 18074B   21045.78024567 -.00000040  00000-0  00000-0 0  9995
2 43633   0.0087 302.6021 0000474   2.6056 289.6692  1.00272239  8808
AEHF-4 (USA 288)        
1 43651U 18079A   21045.78844586  .00000121  00000-0  00000-0 0  9990
2 43651   3.3862 311.7849 0001698 354.3235 332.7396  1.00277711  8754
BEIDOU-3 G1             
1 43683U 18085A   21045.84628331 -.00000288  00000-0  00000-0 0  9992
2 43683   1.2680 240.0720 0002664  38.5742 311.0743  1.00275216  8523
GSAT-29                 
1 43698U 18089A   21046.47532031  .00000078  00000-0  00000+0 0  9998
2 43698   0.0262 236.0991 0002590  38.4710  97.2337  1.00271732  8294
ES'HAIL 2               
1 43700U 18090A   21045.89530991  .00000135  00000-0  00000-0 0  9997
2 43700   0.0169 112.4950 0001953 250.4625 130.2399  1.00270909  8144
GEO-KOMPSAT-2A          
1 43823U 18100A   21046.00327032 -.00000353  00000-0  00000+0 0  9991
2 43823   0.0574 280.8739 0001870   9.8852 343.8685  1.00271774  8120
GSAT-11                 
1 43824U 18100B   21046.18313183 -.00000085  00000-0  00000+0 0  9995
2 43824   0.1079 274.9172 0004563 168.5516 201.8237  1.00272016  8091
GSAT-7A                 
1 43864U 18105A   21046.47879223  .00000020  00000-0  00000+0 0  9996
2 43864   0.1055 273.8726 0001319  37.1383  69.7863  1.00272732  7934
COSMOS 2533             
1 43867U 18107A   21045.90412074 -.00000047  00000-0  00000-0 0  9996
2 43867   0.0299 121.0853 0000686 228.8692 190.6096  1.00271925  7899
TJS-3                   
1 43874U 18110A   21045.93230116 -.00000219  00000-0  00000-0 0  9997
2 43874   0.0664 118.1364 0002086 272.0677 178.3564  1.00273350  7883
TJS-3 AKM               
1 43917U 18110C   21045.90185260  .00000048  00000-0  00000-0 0  9990
2 43917   0.5922 278.7676 0004045 310.3569 299.4285  1.00277600  7826
CHINASAT 2D (ZX 2D)     
1 43920U 19001A   21046.00327032 -.00000346  00000-0  00000+0 0  9992
2 43920   0.0549 282.9896 0001279 191.6946 161.7027  1.00270691  7813
HELLAS-SAT 4 & SGS-1    
1 44034U 19007A   21046.09007590  .00000144  00000-0  00000+0 0  9993
2 44034   0.0666 123.9261 0003049  36.2653  56.5269  1.00271942  7815
GSAT-31                 
1 44035U 19007B   21045.89967171  .00000116  00000-0  00000-0 0  9991
2 44035   0.0963 273.6409 0004166  21.1991 221.9967  1.00272691  7446
NUSANTARA SATU          
1 44048U 19009A   21045.84724291 -.00000244  00000-0  00000-0 0  9999
2 44048   0.0136  97.4370 0001925 229.6288 268.9809  1.00271269  7227
CHINASAT 6C (ZX 6C)     
1 44067U 19012A   21046.00327032 -.00000346  00000-0  00000+0 0  9997
2 44067   0.0628 258.3353 0002421  17.1947   0.8524  1.00270897  7196
WGS 10 (USA 291)        
1 44071U 19014A   21046.08452455  .00000039  00000-0  00000+0 0  9998
2 44071   0.0441 103.6316 0000493 341.6277 150.7546  1.00268645  7077
TIANLIAN 2-01           
1 44076U 19017A   21045.90257612 -.00000145  00000-0  00000-0 0  9994
2 44076   1.4271 284.0336 0029595 219.3763  46.6416  1.00272024  7074
ARABSAT-6A              
1 44186U 19021A   21046.33174319  .00000146  00000-0  00000+0 0  9990
2 44186   0.0503 322.0787 0004360 337.9041 355.4464  1.00278277  6621
BEIDOU-3 IGSO-1         
1 44204U 19023A   21045.98441495 -.00000193  00000-0  00000-0 0  9999
2 44204  55.8437  58.2491 0017266 204.7903 350.9244  1.00276125  6821
BEIDOU-2 G8             
1 44231U 19027A   21045.94776821 -.00000258  00000-0  00000-0 0  9995
2 44231   0.4543 313.8585 0006649 266.8630  50.0414  1.00267001  6547
YAMAL 601               
1 44307U 19031A   21045.89993341  .00000111  00000-0  00000-0 0  9993
2 44307   0.0102 135.4137 0001780 191.9664 190.6857  1.00271795  6418
AT&T T-16               
1 44333U 19034A   21046.56096182 -.00000122  00000-0  00000+0 0  9999
2 44333   0.0324 282.9247 0001145 261.6040  62.3133  1.00269806  6109
EUTELSAT 7C             
1 44334U 19034B   21046.11438331  .00000040  00000-0  00000+0 0  9995
2 44334   0.0172 198.2133 0003233 115.9749 239.2889  1.00273420  6594
BEIDOU-3 IGSO-2         
1 44337U 19035A   21045.86558058 -.00000128  00000-0  00000-0 0  9998
2 44337  55.0862 176.1007 0017168 186.3387 201.7053  1.00268237  6160
COSMOS 2539             
1 44457U 19048A   21046.15951969  .00000073  00000-0  00000+0 0  9993
2 44457   0.0157 123.1884 0000357 358.5390  93.0542  1.00275130  5696
EDRS-C                  
1 44475U 19049A   21045.51128129  .00000144  00000-0  00000-0 0  9997
2 44475   0.0807 277.4982 0000480  11.6969  70.7641  1.00269790  5660
INTELSAT 39 (IS-39)     
1 44476U 19049B   21046.13479448  .00000026  00000-0  00000+0 0  9998
2 44476   0.0221 124.0306 0001342  32.4739  99.3149  1.00269506  5623
AMOS-17                 
1 44479U 19050A   21045.89347795  .00000100  00000-0  00000-0 0  9998
2 44479   0.0135 127.3146 0001719 192.6504 163.8118  1.00273052  5663
AEHF-5 (USA 292)        
1 44481U 19051A   21045.82918505  .00000076  00000-0  00000-0 0  9990
2 44481   5.4584 306.7036 0003760  14.6989 176.6052  1.00272603  5730
EUTELSAT 5 WEST B       
1 44624U 19067A   21046.31980001 -.00000050  00000-0  00000+0 0  9993
2 44624   0.0950 315.5851 0001907  83.2436 216.8432  1.00269549  4913
TJS-4                   
1 44637U 19070A   21046.11299448 -.00000178  00000-0  00000+0 0  9998
2 44637   0.0318 139.7737 0001851 226.8787 262.8640  1.00271311  5021
BEIDOU-3 IGSO-3         
1 44709U 19073A   21045.95264531 -.00000153  00000-0  00000-0 0  9991
2 44709  58.0308 301.4176 0018819 193.4181 100.1812  1.00261843  4918
TIBA-1                  
1 44800U 19080A   21046.32618612  .00000148  00000-0  00000+0 0  9998
2 44800   0.0546   1.5525 0002324 328.2636 328.6339  1.00269982  4546
INMARSAT GX5            
1 44801U 19080B   21046.15951969  .00000066  00000-0  00000+0 0  9994
2 44801   0.0404  60.0884 0002006 270.0378 243.6068  1.00273661  4557
JCSAT-18 (KACIFIC 1)    
1 44868U 19091A   21045.80418034 -.00000211  00000-0  00000-0 0  9995
2 44868   0.0096 146.2935 0000614 210.1220 228.0759  1.00271559  4485
ELEKTRO-L 3             
1 44903U 19095A   21046.49979890 -.00000101  00000-0  00000+0 0  9994
2 44903   0.1033 279.2714 0000804 136.6586 345.6211  1.00266397  4187
SHIJIAN-20 (SJ-20)      
1 44910U 19097A   21045.93230116 -.00000216  00000-0  00000-0 0  9991
2 44910   0.6829  95.1819 0005689 303.0182 170.1044  1.00271314  4160
TJS-5                   
1 44978U 20002A   21046.18365204  .00000034  00000-0  00000+0 0  9994
2 44978   0.0673 287.3019 0000905 129.2875 333.3204  1.00271132  4164
GSAT-30                 
1 45026U 20005A   21046.51521237 -.00000172  00000-0  00000+0 0  9993
2 45026   0.0867 276.1961 0001628 151.1071 346.8743  1.00272819  4004
EUTELSAT KONNECT        
1 45027U 20005B   21046.11438331  .00000041  00000-0  00000+0 0  9996
2 45027   0.0413 102.6738 0000438 302.3969 148.6156  1.00273186  4791
JCSAT-17                
1 45245U 20013A   21046.17450083 -.00000320  00000-0  00000+0 0  9992
2 45245   6.6442 344.1076 0004393 341.4185  18.6526  1.00270932  3717
GEO-KOMPSAT-2B          
1 45246U 20013B   21046.00327032 -.00000353  00000-0  00000+0 0  9998
2 45246   0.0147 193.8572 0001090 211.4014 229.3575  1.00270319  3710
BEIDOU-3 G2             
1 45344U 20017A   21045.94632531 -.00000148  00000-0  00000+0 0  9998
2 45344   2.5943 333.4364 0001533  45.7016 186.6938  1.00272773  3739
AEHF-6 (USA 298)        
1 45465U 20022B   21046.53757903 -.00000164  00000-0  00000+0 0  9993
2 45465   7.0360 307.0473 0003818  21.2588 276.6998  1.00270586  3450
BEIDOU-3 G3             
1 45807U 20040A   21045.86915877 -.00000362  00000-0  00000-0 0  9995
2 45807   2.5644 298.3806 0009635  15.8760 254.1979  1.00268052  2545
APSTAR 6D               
1 45863U 20045A   21046.49111000 -.00000325  00000-0  00000+0 0  9996
2 45863   0.0176 111.0173 0001909 270.2773  75.1578  1.00267155  2331
KOREASAT 116            
1 45920U 20048A   21045.86999215 -.00000371  00000-0  00000-0 0  9997
2 45920   0.0150 134.6350 0001267 182.6009 257.2594  1.00270652  2102
2020-053A               
1 45985U 20053A   21045.69563189 -.00000331  00000-0  00000+0 0  9997
2 45985   0.0474 273.1851 0001467 120.1700 104.9579  1.00271890  2100
2020-053B               
1 45986U 20053B   21045.90612718 -.00000144  00000-0  00000+0 0  9997
2 45986   0.0614 288.4774 0001045 257.9095   4.8879  1.00269650  2100
